NORAD_CAT_ID,OBJECT_NAME,OBJECT_TYPE,EPOCH,MEAN_MOTION,ECCENTRICITY,INCLINATION,RA_OF_ASC_NODE,ARG_OF_PERICENTER,MEAN_ANOMALY,BSTAR,MEAN_MOTION_DOT,MEAN_MOTION_DDOT,TLE_LINE0,TLE_LINE1,TLE_LINE2,SEMIMAJOR_AXIS,PERIOD,APOGEE,PERIGEE,DECAYED
53177.0,STARLINK-4298,PAYLOAD,2023-05-21 04:22:29,15.0885961,8.89e-05,53.217,53.8137,91.7372,268.3722,0.00021874,3.197e-05,0.0,0 STARLINK-4298,1 53177U 22083AX  23141.18228202  .00003197  00000-0  21874-3 0  9999,2 53177  53.2170  53.8137 0000889  91.7372 268.3722 15.08859610 47187,6917.82,95.436,540.3,539.07,0.0
53177.0,STARLINK-4298,PAYLOAD,2023-05-21 20:16:22,15.08824203,8.38e-05,53.2174,50.8396,84.0279,276.0809,-0.00021877,-3.766e-05,0.0,0 STARLINK-4298,1 53177U 22083AX  23141.84470472 -.00003766  00000-0 -21877-3 0  9997,2 53177  53.2174  50.8396 0000838  84.0279 276.0809 15.08824203 47283,6917.929,95.439,540.373,539.214,0.0
53177.0,STARLINK-4298,PAYLOAD,2023-05-22 01:02:32,15.08823886,8.38e-05,53.2176,49.9483,73.3007,286.8078,-0.00020827,-3.599e-05,0.0,0 STARLINK-4298,1 53177U 22083AX  23142.04342675 -.00003599  00000-0 -20827-3 0  9991,2 53177  53.2176  49.9483 0000838  73.3007 286.8078 15.08823886 47958,6917.93,95.439,540.374,539.215,0.0
53177.0,STARLINK-4298,PAYLOAD,2023-05-22 10:34:50,15.08830383,8.57e-05,53.2174,48.1646,75.923,284.1857,-6.1916e-05,-1.273e-05,0.0,0 STARLINK-4298,1 53177U 22083AX  23142.44086713 -.00001273  00000-0 -61916-4 0  9995,2 53177  53.2174  48.1646 0000857  75.9230 284.1857 15.08830383 47377,6917.91,95.438,540.368,539.182,0.0
53177.0,STARLINK-4298,PAYLOAD,2023-05-22 20:07:09,15.08843324,8.39e-05,53.2173,46.3805,69.7516,290.3566,4.5056e-05,4.3e-06,0.0,0 STARLINK-4298,1 53177U 22083AX  23142.83830325  .00000430  00000-0  45056-4 0  9993,2 53177  53.2173  46.3805 0000839  69.7516 290.3566 15.08843324 47433,6917.87,95.437,540.316,539.155,0.0
53177.0,STARLINK-4298,PAYLOAD,2023-05-23 02:28:42,15.08849898,8.6e-05,53.2167,45.1918,70.3895,289.719,0.00067542,0.00010481,0.0,0 STARLINK-4298,1 53177U 22083AX  23143.10326581  .00010481  00000-0  67542-3 0  9998,2 53177  53.2167  45.1918 0000860  70.3895 289.7190 15.08849898 48113,6917.85,95.437,540.31,539.12,0.0
53177.0,STARLINK-4298,PAYLOAD,2023-05-24 02:19:28,15.08859873,8.35e-05,53.2158,40.7319,77.4116,282.697,0.00060423,9.347e-05,0.0,0 STARLINK-4298,1 53177U 22083AX  23144.09686108  .00009347  00000-0  60423-3 0  9991,2 53177  53.2158  40.7319 0000835  77.4116 282.6970 15.08859873 48263,6917.82,95.436,540.262,539.107,0.0
53177.0,STARLINK-4298,PAYLOAD,2023-05-24 16:37:57,15.08839926,0.0001211,53.2155,38.056,68.1683,291.9438,0.00010439,1.374e-05,0.0,0 STARLINK-4298,1 53177U 22083AX  23144.69302584  .00001374  00000-0  10439-3 0  9994,2 53177  53.2155  38.0560 0001211  68.1683 291.9438 15.08839926 48352,6917.881,95.438,540.583,538.908,0.0
53177.0,STARLINK-4298,PAYLOAD,2023-05-25 21:14:53,15.08844518,9.7e-05,53.2172,32.7025,66.4241,293.6853,0.00015031,2.106e-05,0.0,0 STARLINK-4298,1 53177U 22083AX  23145.88534641  .00002106  00000-0  15031-3 0  9994,2 53177  53.2172  32.7025 0000970  66.4241 293.6853 15.08844518 47891,6917.867,95.437,540.403,539.061,0.0
53177.0,STARLINK-4298,PAYLOAD,2023-05-25 22:50:16,15.08847058,9.5e-05,53.2168,32.4049,71.0017,289.1078,0.00020273,2.941e-05,0.0,0 STARLINK-4298,1 53177U 22083AX  23145.95158536  .00002941  00000-0  20273-3 0  9998,2 53177  53.2168  32.4049 0000950  71.0017 289.1078 15.08847058 48544,6917.859,95.437,540.381,539.067,0.0
53177.0,STARLINK-4298,PAYLOAD,2023-05-26 16:19:31,15.08843268,9.97e-05,53.2167,29.1338,66.4124,293.6973,0.00018575,2.67e-05,0.0,0 STARLINK-4298,1 53177U 22083AX  23146.68022729  .00002670  00000-0  18575-3 0  9994,2 53177  53.2167  29.1338 0000997  66.4124 293.6973 15.08843268 48650,6917.87,95.437,540.425,539.046,0.0
53177.0,STARLINK-4298,PAYLOAD,2023-05-26 21:05:41,15.08843313,9.94e-05,53.2167,28.2415,66.0477,294.062,0.00016178,2.288e-05,0.0,0 STARLINK-4298,1 53177U 22083AX  23146.87894687  .00002288  00000-0  16178-3 0  9997,2 53177  53.2167  28.2415 0000994  66.0477 294.0620 15.08843313 48048,6917.87,95.437,540.423,539.048,0.0
53177.0,STARLINK-4298,PAYLOAD,2023-05-27 20:56:28,15.08837083,0.0001084,53.2174,23.7798,110.9931,249.1177,0.0001449,2.019e-05,0.0,0 STARLINK-4298,1 53177U 22083AX  23147.87254826  .00002019  00000-0  14490-3 0  9990,2 53177  53.2174  23.7798 0001084 110.9931 249.1177 15.08837083 48837,6917.889,95.438,540.504,539.004,0.0
53177.0,STARLINK-4298,PAYLOAD,2023-05-27 22:31:50,15.08844687,9.1e-05,53.2173,23.4838,74.6435,285.4657,2.0784e-05,4.3e-07,0.0,0 STARLINK-4298,1 53177U 22083AX  23147.93878464  .00000043  00000-0  20784-4 0  9996,2 53177  53.2173  23.4838 0000910  74.6435 285.4657 15.08844687 48205,6917.866,95.437,540.361,539.102,0.0
53177.0,STARLINK-4298,PAYLOAD,2023-05-28 22:22:37,15.08847497,9.25e-05,53.2174,19.0249,83.8601,276.2496,0.00018122,2.598e-05,0.0,0 STARLINK-4298,1 53177U 22083AX  23148.93238367  .00002598  00000-0  18122-3 0  9998,2 53177  53.2174  19.0249 0000925  83.8601 276.2496 15.08847497 48353,6917.857,95.437,540.362,539.083,0.0
53177.0,STARLINK-4298,PAYLOAD,2023-05-29 22:13:25,15.08835635,8.71e-05,53.2168,14.5656,86.8121,273.2971,-2.7233e-06,-3.31e-06,0.0,0 STARLINK-4298,1 53177U 22083AX  23149.92599032 -.00000331  00000-0 -27233-5 0  9997,2 53177  53.2168  14.5656 0000871  86.8121 273.2971 15.08835635 48501,6917.894,95.438,540.361,539.156,0.0
53177.0,STARLINK-4298,PAYLOAD,2023-05-30 01:24:11,15.08840263,9.06e-05,53.2168,13.9695,82.4646,277.6449,4.3967e-05,4.12e-06,0.0,0 STARLINK-4298,1 53177U 22083AX  23150.05846780  .00000412  00000-0  43967-4 0  9997,2 53177  53.2168  13.9695 0000906  82.4646 277.6449 15.08840263 49164,6917.88,95.438,540.371,539.118,0.0
53177.0,STARLINK-4298,PAYLOAD,2023-05-30 22:04:12,15.08842686,9.15e-05,53.217,10.1033,81.233,278.8766,7.7135e-05,9.4e-06,0.0,0 STARLINK-4298,1 53177U 22083AX  23150.91958863  .00000940  00000-0  77135-4 0  9998,2 53177  53.2170  10.1033 0000915  81.2330 278.8766 15.08842686 48658,6917.872,95.437,540.37,539.104,0.0
53177.0,STARLINK-4298,PAYLOAD,2023-05-31 01:14:58,15.08846412,9.48e-05,53.2169,9.5084,86.8695,273.2406,0.00015779,2.225e-05,0.0,0 STARLINK-4298,1 53177U 22083AX  23151.05206671  .00002225  00000-0  15779-3 0  9990,2 53177  53.2169   9.5084 0000948  86.8695 273.2406 15.08846412 48678,6917.861,95.437,540.382,539.07,0.0
53177.0,STARLINK-4298,PAYLOAD,2023-05-31 18:44:13,15.08839321,9.03e-05,53.2166,6.2373,97.2395,262.87,9.5606e-05,1.234e-05,0.0,0 STARLINK-4298,1 53177U 22083AX  23151.78071181  .00001234  00000-0  95606-4 0  9993,2 53177  53.2166   6.2373 0000903  97.2395 262.8700 15.08839321 49420,6917.882,95.438,540.372,539.123,0.0
53177.0,STARLINK-4298,PAYLOAD,2023-05-31 21:54:59,15.08843244,9.63e-05,53.2165,5.6424,93.8735,266.2367,0.00015729,2.217e-05,0.0,0 STARLINK-4298,1 53177U 22083AX  23151.91319029  .00002217  00000-0  15729-3 0  9993,2 53177  53.2165   5.6424 0000963  93.8735 266.2367 15.08843244 48802,6917.87,95.437,540.402,539.069,0.0
53177.0,STARLINK-4298,PAYLOAD,2023-06-01 20:10:23,15.08839249,0.0001024,53.2177,1.4758,97.7125,262.3984,0.00011392,1.526e-05,0.0,0 STARLINK-4298,1 53177U 22083AX  23152.84055366  .00001526  00000-0  11392-3 0  9991,2 53177  53.2177   1.4758 0001024  97.7125 262.3984 15.08839249 49582,6917.883,95.438,540.456,539.039,0.0
53177.0,STARLINK-4298,PAYLOAD,2023-06-01 23:21:09,15.0884627,9.9e-05,53.2163,0.8843,95.0771,265.0334,0.00015047,2.108e-05,0.0,0 STARLINK-4298,1 53177U 22083AX  23152.97303074  .00002108  00000-0  15047-3 0  9995,2 53177  53.2163   0.8843 0000990  95.0771 265.0334 15.08846270 49608,6917.861,95.437,540.411,539.041,0.0
53177.0,STARLINK-4298,PAYLOAD,2023-06-02 18:25:47,15.08843362,0.000104,53.2182,357.3112,106.4697,253.6409,6.7719e-05,7.9e-06,0.0,0 STARLINK-4298,1 53177U 22083AX  23153.76791277  .00000790  00000-0  67719-4 0  9998,2 53177  53.2182 357.3112 0001040 106.4697 253.6409 15.08843362 49727,6917.87,95.437,540.455,539.016,0.0
53177.0,STARLINK-4298,PAYLOAD,2023-06-02 20:01:10,15.08844781,0.0001072,53.2175,357.0149,105.9608,254.1502,0.00011491,1.542e-05,0.0,0 STARLINK-4298,1 53177U 22083AX  23153.83415221  .00001542  00000-0  11491-3 0  9999,2 53177  53.2175 357.0149 0001072 105.9608 254.1502 15.08844781 49093,6917.866,95.437,540.472,538.989,0.0
53177.0,STARLINK-4298,PAYLOAD,2023-06-03 13:30:25,15.0884301,9.31e-05,53.2158,353.7495,76.5436,283.566,6.1019e-05,6.84e-06,0.0,0 STARLINK-4298,1 53177U 22083AX  23154.56279481  .00000684  00000-0  61019-4 0  9994,2 53177  53.2158 353.7495 0000931  76.5436 283.5660 15.08843010 49204,6917.871,95.437,540.38,539.092,0.0
53177.0,STARLINK-4298,PAYLOAD,2023-06-03 19:51:57,15.08845213,9.43e-05,53.2161,352.5592,82.272,277.8379,0.00011168,1.49e-05,0.0,0 STARLINK-4298,1 53177U 22083AX  23154.82775325  .00001490  00000-0  11168-3 0  9996,2 53177  53.2161 352.5592 0000943  82.2720 277.8379 15.08845213 49240,6917.864,95.437,540.382,539.077,0.0
53177.0,STARLINK-4298,PAYLOAD,2023-06-04 11:45:49,15.08838028,9.31e-05,53.216,349.5854,85.2486,274.8613,7.1429e-05,8.49e-06,0.0,0 STARLINK-4298,1 53177U 22083AX  23155.49015688  .00000849  00000-0  71429-4 0  9993,2 53177  53.2160 349.5854 0000931  85.2486 274.8613 15.08838028 49340,6917.886,95.438,540.395,539.107,0.0
53177.0,STARLINK-4298,PAYLOAD,2023-06-04 19:42:45,15.08841657,9.08e-05,53.2167,348.0996,82.2989,277.8106,8.0775e-05,9.98e-06,0.0,0 STARLINK-4298,1 53177U 22083AX  23155.82135442  .00000998  00000-0  80775-4 0  9990,2 53177  53.2167 348.0996 0000908  82.2989 277.8106 15.08841657 50037,6917.875,95.437,540.368,539.112,0.0
53177.0,STARLINK-4298,PAYLOAD,2023-06-05 13:11:59,15.08838344,9.48e-05,53.2166,344.8277,81.1889,278.921,4.5875e-05,4.42e-06,0.0,0 STARLINK-4298,1 53177U 22083AX  23156.54999763  .00000442  00000-0  45875-4 0  9990,2 53177  53.2166 344.8277 0000948  81.1889 278.9210 15.08838344 49500,6917.885,95.438,540.406,539.095,0.0
